start=new Date('2023-04-14T00:00:00.000Z').valueOf();
sats=[{"MEAN_MOTION":"15.08844827","TLE_LINE1":"1 53025U 22076AR  23103.49123467  .00001577  00000-0  11713-3 0  9993","RCS_SIZE":"LARGE","PERIAPSIS":"538.857","EPHEMERIS_TYPE":"0","ARG_OF_PERICENTER":"81.9720","MEAN_MOTION_DDOT":"0.0000000000000","PERIOD":"95.437","MEAN_MOTION_DOT":"0.00001577","INCLINATION":"53.2146","OBJECT_TYPE":"PAYLOAD","FILE":"3886943","CENTER_NAME":"EARTH","COUNTRY_CODE":"US","ELEMENT_SET_NO":"999","RA_OF_ASC_NODE":"168.0245","BSTAR":"0.00011713000000","MEAN_ELEMENT_THEORY":"SGP4","CLASSIFICATION_TYPE":"U","LAUNCH_DATE":"2022-07-07","SITE":"AFETR","NORAD_CAT_ID":"53025","EPOCH":"2023-04-13T11:47:22.675488","OBJECT_NAME":"STARLINK-4218","REV_AT_EPOCH":"4325","GP_ID":"230026284","SEMIMAJOR_AXIS":"6917.866","MEAN_ANOMALY":"278.1416","TIME_SYSTEM":"UTC","OBJECT_ID":"2022-076AR","TLE_LINE2":"2 53025  53.2146 168.0245 0001263  81.9720 278.1416 15.08844827 43253","DECAY_DATE":null,"ECCENTRICITY":"0.00012630","REF_FRAME":"TEME","APOAPSIS":"540.604"},{"BSTAR":"0.00002706700000","MEAN_ELEMENT_THEORY":"SGP4","CENTER_NAME":"EARTH","COUNTRY_CODE":"US","ELEMENT_SET_NO":"999","RA_OF_ASC_NODE":"168.2554","OBJECT_TYPE":"PAYLOAD","FILE":"3886564","PERIOD":"95.437","MEAN_MOTION_DOT":"0.00000143","INCLINATION":"53.2146","EPHEMERIS_TYPE":"0","ARG_OF_PERICENTER":"71.9777","MEAN_MOTION_DDOT":"0.0000000000000","TLE_LINE1":"1 53026U 22076AS  23103.43971748  .00000143  00000-0  27067-4 0  9999","RCS_SIZE":"LARGE","MEAN_MOTION":"15.08842544","PERIAPSIS":"538.912","APOAPSIS":"540.563","ECCENTRICITY":"0.00011930","REF_FRAME":"TEME","TLE_LINE2":"2 53026  53.2146 168.2554 0001193  71.9777 288.1345 15.08842544 42774","OBJECT_ID":"2022-076AS","DECAY_DATE":null,"GP_ID":"230013586","REV_AT_EPOCH":"4277","SEMIMAJOR_AXIS":"6917.873","MEAN_ANOMALY":"288.1345","TIME_SYSTEM":"UTC","OBJECT_NAME":"STARLINK-4119","NORAD_CAT_ID":"53026","EPOCH":"2023-04-13T10:33:11.590272","CLASSIFICATION_TYPE":"U","LAUNCH_DATE":"2022-07-07","SITE":"AFETR"},{"MEAN_MOTION_DDOT":"0.0000000000000","EPHEMERIS_TYPE":"0","ARG_OF_PERICENTER":"96.9136","RCS_SIZE":"LARGE","TLE_LINE1":"1 53027U 22076AT  23103.41395806 -.00000210  00000-0  49036-5 0  9990","MEAN_MOTION":"15.08839027","PERIAPSIS":"538.715","ELEMENT_SET_NO":"999","RA_OF_ASC_NODE":"168.3726","CENTER_NAME":"EARTH","COUNTRY_CODE":"US","BSTAR":"0.00000490360000","MEAN_ELEMENT_THEORY":"SGP4","MEAN_MOTION_DOT":"-0.00000210","INCLINATION":"53.2162","PERIOD":"95.438","OBJECT_TYPE":"PAYLOAD","FILE":"3886943","OBJECT_NAME":"STARLINK-4158","LAUNCH_DATE":"2022-07-07","SITE":"AFETR","CLASSIFICATION_TYPE":"U","EPOCH":"2023-04-13T09:56:05.976384","NORAD_CAT_ID":"53027","REF_FRAME":"TEME","ECCENTRICITY":"0.00014940","APOAPSIS":"540.782","MEAN_ANOMALY":"263.2026","TIME_SYSTEM":"UTC","GP_ID":"230026289","REV_AT_EPOCH":"4324","SEMIMAJOR_AXIS":"6917.883","DECAY_DATE":null,"OBJECT_ID":"2022-076AT","TLE_LINE2":"2 53027  53.2162 168.3726 0001494  96.9136 263.2026 15.08839027 43240"},{"SITE":"AFETR","LAUNCH_DATE":"2022-07-07","CLASSIFICATION_TYPE":"U","EPOCH":"2023-04-13T15:57:45.763200","NORAD_CAT_ID":"53029","OBJECT_NAME":"STARLINK-4143","MEAN_ANOMALY":"275.5456","TIME_SYSTEM":"UTC","GP_ID":"230026287","REV_AT_EPOCH":"4341","SEMIMAJOR_AXIS":"6917.862","DECAY_DATE":null,"OBJECT_ID":"2022-076AV","TLE_LINE2":"2 53029  53.2163 157.2449 0001492  84.5706 275.5456 15.08845874 43415","REF_FRAME":"TEME","ECCENTRICITY":"0.00014920","APOAPSIS":"540.760","MEAN_MOTION":"15.08845874","TLE_LINE1":"1 53029U 22076AV  23103.66511300  .00001901  00000-0  13748-3 0  9994","RCS_SIZE":"LARGE","PERIAPSIS":"538.695","MEAN_MOTION_DDOT":"0.0000000000000","EPHEMERIS_TYPE":"0","ARG_OF_PERICENTER":"84.5706","MEAN_MOTION_DOT":"0.00001901","INCLINATION":"53.2163","PERIOD":"95.437","OBJECT_TYPE":"PAYLOAD","FILE":"3886943","ELEMENT_SET_NO":"999","RA_OF_ASC_NODE":"157.2449","CENTER_NAME":"EARTH","COUNTRY_CODE":"US","BSTAR":"0.00013748000000","MEAN_ELEMENT_THEORY":"SGP4"},{"PERIAPSIS":"538.702","TLE_LINE1":"1 53030U 22076AW  23103.35507852  .00000259  00000-0  34373-4 0  9992","RCS_SIZE":"LARGE","MEAN_MOTION":"15.08839750","MEAN_MOTION_DDOT":"0.0000000000000","EPHEMERIS_TYPE":"0","ARG_OF_PERICENTER":"99.5981","INCLINATION":"53.2168","MEAN_MOTION_DOT":"0.00000259","PERIOD":"95.438","FILE":"3886564","OBJECT_TYPE":"PAYLOAD","RA_OF_ASC_NODE":"168.6367","ELEMENT_SET_NO":"999","COUNTRY_CODE":"US","CENTER_NAME":"EARTH","MEAN_ELEMENT_THEORY":"SGP4","BSTAR":"0.00003437300000","SITE":"AFETR","LAUNCH_DATE":"2022-07-07","CLASSIFICATION_TYPE":"U","EPOCH":"2023-04-13T08:31:18.784128","NORAD_CAT_ID":"53030","OBJECT_NAME":"STARLINK-4160","TIME_SYSTEM":"UTC","MEAN_ANOMALY":"260.5182","SEMIMAJOR_AXIS":"6917.881","REV_AT_EPOCH":"4276","GP_ID":"230015336","DECAY_DATE":null,"OBJECT_ID":"2022-076AW","TLE_LINE2":"2 53030  53.2168 168.6367 0001510  99.5981 260.5182 15.08839750 42762","REF_FRAME":"TEME","ECCENTRICITY":"0.00015100","APOAPSIS":"540.791"},{"OBJECT_ID":"2022-076AX","TLE_LINE2":"2 53031  53.2171 158.1861 0002150 105.5737 254.5493 15.08840836 42910","DECAY_DATE":null,"GP_ID":"230014087","REV_AT_EPOCH":"4291","SEMIMAJOR_AXIS":"6917.878","MEAN_ANOMALY":"254.5493","TIME_SYSTEM":"UTC","APOAPSIS":"541.230","ECCENTRICITY":"0.00021500","REF_FRAME":"TEME","NORAD_CAT_ID":"53031","EPOCH":"2023-04-13T10:55:42.877632","CLASSIFICATION_TYPE":"U","SITE":"AFETR","LAUNCH_DATE":"2022-07-07","OBJECT_NAME":"STARLINK-4137","OBJECT_TYPE":"PAYLOAD","FILE":"3886564","PERIOD":"95.438","MEAN_MOTION_DOT":"-0.00000041","INCLINATION":"53.2171","BSTAR":"0.00001551300000","MEAN_ELEMENT_THEORY":"SGP4","CENTER_NAME":"EARTH","COUNTRY_CODE":"US","ELEMENT_SET_NO":"999","RA_OF_ASC_NODE":"158.1861","MEAN_MOTION":"15.08840836","TLE_LINE1":"1 53031U 22076AX  23103.45535738 -.00000041  00000-0  15513-4 0  9993","RCS_SIZE":"LARGE","PERIAPSIS":"538.255","ARG_OF_PERICENTER":"105.5737","EPHEMERIS_TYPE":"0","MEAN_MOTION_DDOT":"0.0000000000000"},{"MEAN_MOTION":"15.08848686","TLE_LINE1":"1 53032U 22076AY  23103.41764073 -.00005286  00000-0 -31419-3 0  9995","RCS_SIZE":"LARGE","PERIAPSIS":"539.201","ARG_OF_PERICENTER":"97.9697","EPHEMERIS_TYPE":"0","MEAN_MOTION_DDOT":"0.0000000000000","PERIOD":"95.437","MEAN_MOTION_DOT":"-0.00005286","INCLINATION":"53.2168","OBJECT_TYPE":"PAYLOAD","FILE":"3886564","CENTER_NAME":"EARTH","COUNTRY_CODE":"US","ELEMENT_SET_NO":"999","RA_OF_ASC_NODE":"168.3560","BSTAR":"-0.00031419000000","MEAN_ELEMENT_THEORY":"SGP4","CLASSIFICATION_TYPE":"U","LAUNCH_DATE":"2022-07-07","SITE":"AFETR","NORAD_CAT_ID":"53032","EPOCH":"2023-04-13T10:01:24.159072","OBJECT_NAME":"STARLINK-4115","GP_ID":"230013837","REV_AT_EPOCH":"4277","SEMIMAJOR_AXIS":"6917.854","MEAN_ANOMALY":"262.1381","TIME_SYSTEM":"UTC","OBJECT_ID":"2022-076AY","TLE_LINE2":"2 53032  53.2168 168.3560 0000748  97.9697 262.1381 15.08848686 42772","DECAY_DATE":null,"ECCENTRICITY":"0.00007480","REF_FRAME":"TEME","APOAPSIS":"540.236"},{"REF_FRAME":"TEME","ECCENTRICITY":"0.00016390","APOAPSIS":"540.873","TIME_SYSTEM":"UTC","MEAN_ANOMALY":"252.5020","SEMIMAJOR_AXIS":"6917.874","REV_AT_EPOCH":"4291","GP_ID":"230015089","DECAY_DATE":null,"TLE_LINE2":"2 53033  53.2163 158.1708 0001639 107.6151 252.5020 15.08842193 42919","OBJECT_ID":"2022-076AZ","OBJECT_NAME":"STARLINK-4167","LAUNCH_DATE":"2022-07-07","SITE":"AFETR","CLASSIFICATION_TYPE":"U","EPOCH":"2023-04-13T11:01:00.725088","NORAD_CAT_ID":"53033","RA_OF_ASC_NODE":"158.1708","ELEMENT_SET_NO":"999","COUNTRY_CODE":"US","CENTER_NAME":"EARTH","MEAN_ELEMENT_THEORY":"SGP4","BSTAR":"-0.00000419160000","INCLINATION":"53.2163","MEAN_MOTION_DOT":"-0.00000355","PERIOD":"95.437","FILE":"3886564","OBJECT_TYPE":"PAYLOAD","MEAN_MOTION_DDOT":"0.0000000000000","ARG_OF_PERICENTER":"107.6151","EPHEMERIS_TYPE":"0","PERIAPSIS":"538.605","MEAN_MOTION":"15.08842193","TLE_LINE1":"1 53033U 22076AZ  23103.45903617 -.00000355  00000-0 -41916-5 0  9996","RCS_SIZE":"LARGE"},{"ELEMENT_SET_NO":"999","RA_OF_ASC_NODE":"158.4526","CENTER_NAME":"EARTH","COUNTRY_CODE":"US","BSTAR":"0.00001638000000","MEAN_ELEMENT_THEORY":"SGP4","MEAN_MOTION_DOT":"-0.00000027","INCLINATION":"53.2184","PERIOD":"95.438","OBJECT_TYPE":"PAYLOAD","FILE":"3886564","MEAN_MOTION_DDOT":"0.0000000000000","EPHEMERIS_TYPE":"0","ARG_OF_PERICENTER":"104.0770","TLE_LINE1":"1 53034U 22076BA  23103.39647901 -.00000027  00000-0  16380-4 0  9992","RCS_SIZE":"LARGE","MEAN_MOTION":"15.08838197","PERIAPSIS":"538.804","REF_FRAME":"TEME","ECCENTRICITY":"0.00013690","APOAPSIS":"540.698","MEAN_ANOMALY":"256.0374","TIME_SYSTEM":"UTC","GP_ID":"230014837","REV_AT_EPOCH":"4290","SEMIMAJOR_AXIS":"6917.886","DECAY_DATE":null,"OBJECT_ID":"2022-076BA","TLE_LINE2":"2 53034  53.2184 158.4526 0001369 104.0770 256.0374 15.08838197 42901","OBJECT_NAME":"STARLINK-4151","LAUNCH_DATE":"2022-07-07","SITE":"AFETR","CLASSIFICATION_TYPE":"U","EPOCH":"2023-04-13T09:30:55.786464","NORAD_CAT_ID":"53034"},{"NORAD_CAT_ID":"53035","EPOCH":"2023-04-13T09:15:01.863936","CLASSIFICATION_TYPE":"U","LAUNCH_DATE":"2022-07-07","SITE":"AFETR","OBJECT_NAME":"STARLINK-4157","OBJECT_ID":"2022-076BB","TLE_LINE2":"2 53035  53.2138 158.4992 0001397 102.4539 257.6610 15.08837896 42909","DECAY_DATE":null,"SEMIMAJOR_AXIS":"6917.887","REV_AT_EPOCH":"4290","GP_ID":"230013587","TIME_SYSTEM":"UTC","MEAN_ANOMALY":"257.6610","APOAPSIS":"540.718","ECCENTRICITY":"0.00013970","REF_FRAME":"TEME","PERIAPSIS":"538.785","TLE_LINE1":"1 53035U 22076BB  23103.38543824  .00003846  00000-0  25964-3 0  9999","RCS_SIZE":"LARGE","MEAN_MOTION":"15.08837896","ARG_OF_PERICENTER":"102.4539","EPHEMERIS_TYPE":"0","MEAN_MOTION_DDOT":"0.0000000000000","FILE":"3886564","OBJECT_TYPE":"PAYLOAD","PERIOD":"95.438","INCLINATION":"53.2138","MEAN_MOTION_DOT":"0.00003846","MEAN_ELEMENT_THEORY":"SGP4","BSTAR":"0.00025964000000","COUNTRY_CODE":"US","CENTER_NAME":"EARTH","RA_OF_ASC_NODE":"158.4992","ELEMENT_SET_NO":"999"}];
